{
  "norad_id": 64344,
  "name": "STARLINK-33977",
  "history": [
    {
      "epoch": "2026-03-28T20:00:01.999872",
      "apogee_km": 573.8467589727516,
      "perigee_km": 570.0903659183605,
      "latitude_deg": -58.06833640226832,
      "longitude_deg": -25.597777920076624,
      "semi_major_axis_km": 6950.105562445556,
      "eccentricity": 0.00027024,
      "inclination_deg": 70.0023,
      "raan_deg": 346.1283,
      "arg_perigee_deg": 267.4534,
      "mean_anomaly_deg": 0.9374,
      "mean_motion_rev_day": 14.9835824
    },
    {
      "epoch": "2026-03-29T02:49:02.834688",
      "apogee_km": 573.6781430118444,
      "perigee_km": 570.4379620783475,
      "latitude_deg": 48.24398527630661,
      "longitude_deg": 1.6698163198307157,
      "semi_major_axis_km": 6950.195052545096,
      "eccentricity": 0.0002331,
      "inclination_deg": 70.0034,
      "raan_deg": 345.4121,
      "arg_perigee_deg": 261.6929,
      "mean_anomaly_deg": 98.3966,
      "mean_motion_rev_day": 14.98329301
    }
  ]
}